GPS BIIR-2  (PRN 13)    
1 24876U 97035A   24055.60267089  .00000006  00000+0  00000+0 0  9999
2 24876  55.6332 131.5723 0076204  52.6274 308.1226  2.00565527195032
GPS BIIR-4  (PRN 20)    
1 26360U 00025A   24055.71328593 -.00000043  00000+0  00000+0 0  9994
2 26360  54.5776  53.5073 0039619 212.5491 316.9879  2.00557580174353
GPS BIIR-5  (PRN 22)    
1 26407U 00040A   24055.70802167  .00000027  00000+0  00000+0 0  9997
2 26407  55.1182 248.6983 0147007 294.3135  72.0866  2.00558607173035
GPS BIIR-8  (PRN 16)    
1 27663U 03005A   24055.52550979  .00000028  00000+0  00000+0 0  9998
2 27663  55.1583 248.5166 0138316  46.7546 324.8425  2.00556166154390
GPS BIIR-9  (PRN 21)    
1 27704U 03010A   24055.46299244 -.00000105  00000+0  00000+0 0  9995
2 27704  55.1123 358.3811 0253959 323.9119 219.8233  2.00558756153172
GPS BIIR-11 (PRN 19)    
1 28190U 04009A   24055.52864390 -.00000047  00000+0  00000+0 0  9996
2 28190  55.5486 309.5744 0093761 143.3966  28.4836  2.00562234146023
GPS BIIR-13 (PRN 02)    
1 28474U 04045A   24055.31400604 -.00000105  00000+0  00000+0 0  9997
2 28474  55.4403 358.7674 0163956 288.9069 133.6976  2.00559576141505
GPS BIIRM-1 (PRN 17)    
1 28874U 05038A   24055.82824301 -.00000042  00000+0  00000+0 0  9994
2 28874  55.5964 307.0195 0137781 283.3360 129.4485  2.00563540134929
GPS BIIRM-2 (PRN 31)    
1 29486U 06042A   24055.41497970 -.00000008  00000+0  00000+0 0  9995
2 29486  54.6800 184.7940 0104318  36.8926 337.6642  2.00561944127471
GPS BIIRM-3 (PRN 12)    
1 29601U 06052A   24054.82609394  .00000030  00000+0  00000+0 0  9998
2 29601  55.1855 247.5150 0087405  81.0256 279.9773  2.00560254126477
GPS BIIRM-4 (PRN 15)    
1 32260U 07047A   24055.62891251  .00000007  00000+0  00000+0 0  9996
2 32260  53.5459 114.9546 0152193  73.8426 287.9058  2.00570524119899
GPS BIIRM-5 (PRN 29)    
1 32384U 07062A   24054.70852652 -.00000044  00000+0  00000+0 0  9992
2 32384  55.7337 307.9108 0025003 147.2975  35.6514  2.00568022118576
GPS BIIRM-6 (PRN 07)    
1 32711U 08012A   24055.54741404 -.00000007  00000+0  00000+0 0  9996
2 32711  54.4505 183.5795 0182221 237.3160 120.8760  2.00564209116836
GPS BIIRM-8 (PRN 05)    
1 35752U 09043A   24055.61205368 -.00000028  00000+0  00000+0 0  9994
2 35752  55.5804  60.8009 0054485  69.6322 351.0798  2.00576501106420
GPS BIIF-1  (PRN 25)    
1 36585U 10022A   24055.10952198  .00000027  00000+0  00000+0 0  9990
2 36585  54.4908 242.6049 0116182  61.2021 119.3040  2.00570950100666
GPS BIIF-3  (PRN 24)    
1 38833U 12053A   24055.72025865 -.00000007  00000+0  00000+0 0  9993
2 38833  53.5138 178.1052 0149387  55.0311 306.3267  2.00556817 82521
GPS BIIF-4  (PRN 27)    
1 39166U 13023A   24055.58535510 -.00000036  00000+0  00000+0 0  9990
2 39166  55.2096 303.1560 0122566  42.9959 318.0202  2.00563489 78965
GPS BIIF-5  (PRN 30)    
1 39533U 14008A   24055.58832535 -.00000007  00000+0  00000+0 0  9997
2 39533  53.5988 183.6924 0069772 216.8473 142.6318  2.00561653 72763
GPS BIIF-6  (PRN 06)    
1 39741U 14026A   24055.86750456 -.00000100  00000+0  00000+0 0  9994
2 39741  56.7117   4.2599 0033080 313.5595  46.1597  2.00576539 71622
GPS BIIF-7  (PRN 09)    
1 40105U 14045A   24055.45807456  .00000008  00000+0  00000+0 0  9995
2 40105  54.8794 122.1526 0025503 117.6618 242.6676  2.00558298 69156
GPS BIIF-8  (PRN 03)    
1 40294U 14068A   24055.32586805 -.00000021  00000+0  00000+0 0  9993
2 40294  56.3257  63.6838 0049197  59.6290 300.8993  2.00552485 68281
GPS BIIF-9  (PRN 26)    
1 40534U 15013A   24055.46601239  .00000022  00000+0  00000+0 0  9995
2 40534  53.3891 239.1098 0087195  29.2752 331.2029  2.00572541 64901
GPS BIIF-10 (PRN 08)    
1 40730U 15033A   24055.62768404 -.00000034  00000+0  00000+0 0  9995
2 40730  54.6948 301.6837 0092938  17.3411 343.0403  2.00573025 63075
GPS BIIF-11 (PRN 10)    
1 41019U 15062A   24055.68148130 -.00000022  00000+0  00000+0 0  9999
2 41019  56.3079  63.5224 0094760 224.9635 134.3054  2.00562459 60915
GPS BIIF-12 (PRN 32)    
1 41328U 16007A   24055.26570936  .00000006  00000+0  00000+0 0  9990
2 41328  55.0784 122.9774 0077674 236.5268 122.7964  2.00567513 58917
GPS BIII-1  (PRN 04)    
1 43873U 18109A   24055.64345216  .00000009  00000+0  00000+0 0  9998
2 43873  55.2513 125.5145 0028864 194.4017 333.5748  2.00574510 38159
GPS BIII-2  (PRN 18)    
1 44506U 19056A   24055.30623897 -.00000103  00000+0  00000+0 0  9997
2 44506  55.8404   4.5907 0038826 190.2481 350.4158  2.00570055 33145
GPS BIII-3  (PRN 23)    
1 45854U 20041A   24055.22483463 -.00000025  00000+0  00000+0 0  9997
2 45854  56.0293  61.9051 0040407 193.6633 228.0902  2.00560219 27110
GPS BIII-4  (PRN 14)    
1 46826U 20078A   24055.91723631  .00000025  00000+0  00000+0 0  9996
2 46826  54.2300 245.0083 0040639 193.4441 345.4404  2.00561549 24598
GPS BIII-5  (PRN 11)    
1 48859U 21054A   24055.91881714 -.00000101  00000+0  00000+0 0  9992
2 48859  55.3624   6.2703 0013930 226.0742 139.2018  2.00564775 19840
GPS BIII-6  (PRN 28)    
1 55268U 23009A   24055.85352439 -.00000003  00000+0  00000+0 0  9997
2 55268  55.0870 181.6099 0004011 104.7290 252.5287  2.00572189  8324
